IRIDIUM 112             
1 41925U 17003J   23361.81729068  .00000512  00000+0  17583-3 0  9992
2 41925  86.3970 105.4539 0002033 101.2063 258.9361 14.34217595363933
IRIDIUM 111             
1 41926U 17003K   23361.80460765 -.00000018  00000+0 -13520-4 0  9999
2 41926  86.3970 105.5097 0002240  94.3908 265.7544 14.34215877363912
IRIDIUM 113             
1 42803U 17039A   23361.92410901 -.00000034  00000+0 -19039-4 0  9992
2 42803  86.3973 339.2081 0002286  94.0080 266.1378 14.34217357341862
IRIDIUM 123             
1 42804U 17039B   23361.54697208  .00000490  00000+0  16787-3 0  9998
2 42804  86.3968  10.8570 0002340  94.3979 265.7484 14.34222317340575
IRIDIUM 120             
1 42805U 17039C   23361.91776751 -.00000125  00000+0 -51811-4 0  9996
2 42805  86.3962 339.1103 0002166  87.7134 272.4310 14.34216760341854
IRIDIUM 115             
1 42806U 17039D   23361.91650614  .00000658  00000+0  18953-3 0  9994
2 42806  86.4501 339.1099 0002433  90.7786 269.3694 14.43273732344128
IRIDIUM 118             
1 42807U 17039E   23361.57868512  .00000490  00000+0  16776-3 0  9990
2 42807  86.3968  10.8460 0002203  92.6390 267.5058 14.34221407340578
IRIDIUM 117             
1 42808U 17039F   23361.52793846  .00000499  00000+0  17113-3 0  9998
2 42808  86.3966  10.8328 0002317  89.5067 270.6395 14.34222865340592
